STARLINK-35595          
1 66101U 25236R   25320.83335647 -.00051994  00000+0 -93222-3 0  9993
2 66101  53.1591 269.6111 0001348  99.3746 281.9028 15.49332509  5657
STARLINK-35599          
1 66102U 25236S   25320.83335647 -.00042889  00000+0 -76674-3 0  9999
2 66102  53.1591 269.6080 0001467 106.2557 276.9369 15.49328924  5651
STARLINK-35622          
1 66103U 25236T   25320.83335647 -.00074558  00000+0 -13436-2 0  9994
2 66103  53.1590 269.5996 0001366 103.1562 283.8698 15.49344878  5711
STARLINK-35452          
1 66104U 25236U   25320.83335647 -.00083615  00000+0 -15093-2 0  9990
2 66104  53.1591 269.6033 0001460  97.9719 287.1405 15.49349067  5713
STARLINK-35561          
1 66105U 25236V   25320.83335647 -.00120816  00000+0 -21930-2 0  9993
2 66105  53.1591 269.5959 0001372  99.6799 289.2602 15.49370883  5654
STARLINK-35584          
1 66106U 25236W   25320.83335647 -.00056484  00000+0 -10139-2 0  9992
2 66106  53.1590 269.5907 0001390  97.0681 293.7925 15.49335470  5717
STARLINK-35593          
1 66107U 25236X   25320.83335647 -.00075977  00000+0 -13695-2 0  9991
2 66107  53.1591 269.5871 0001514  97.5576 295.2212 15.49345505  5711
STARLINK-35590          
1 66108U 25236Y   25320.83335647 -.00078187  00000+0 -14099-2 0  9997
2 66108  53.1590 269.5790 0001376  99.7101 296.9032 15.49346017  5655
STARLINK-35545          
1 66109U 25236Z   25320.83335647 -.00072032  00000+0 -12974-2 0  9991
2 66109  53.1591 269.5829 0001419  92.7135 301.9799 15.49344229  5715
STARLINK-35427          
1 66110U 25236AA  25320.83335647 -.00031083  00000+0 -55277-3 0  9998
2 66110  53.1590 269.5744 0001375 103.0877 295.4379 15.49321679  5717
STARLINK-35574          
1 66111U 25236AB  25320.83335647 -.00069975  00000+0 -12599-2 0  9999
2 66111  53.1589 269.5706 0001335  97.4897 302.9556 15.49342161  5651
STARLINK-35531          
1 66112U 25236AC  25320.83335647 -.00067660  00000+0 -12175-2 0  9999
2 66112  53.1589 269.5627 0001403  95.3833 308.8951 15.49342481  5713
