CCSDS_OMM_VERS = 2.0
CREATION_DATE  = 
ORIGINATOR     = 

OBJECT_NAME    = STARLINK-35595
OBJECT_ID      = 2025-236R
CENTER_NAME    = EARTH
REF_FRAME      = TEME
TIME_SYSTEM    = UTC
MEAN_ELEMENT_THEORY = SGP/SGP4

EPOCH          = 2025-11-16T20:00:01.999008
MEAN_MOTION    = 15.49332509
ECCENTRICITY   = .0001348
INCLINATION    = 53.1591
RA_OF_ASC_NODE = 269.6111
ARG_OF_PERICENTER = 99.3746
MEAN_ANOMALY   = 281.9028

EPHEMERIS_TYPE = 0
CLASSIFICATION_TYPE = U
NORAD_CAT_ID   = 66101
ELEMENT_SET_NO = 999
REV_AT_EPOCH   = 565
BSTAR          = -.93222E-3
MEAN_MOTION_DOT = -.51994E-3
MEAN_MOTION_DDOT = 0

CCSDS_OMM_VERS = 2.0
CREATION_DATE  = 
ORIGINATOR     = 

OBJECT_NAME    = STARLINK-35599
OBJECT_ID      = 2025-236S
CENTER_NAME    = EARTH
REF_FRAME      = TEME
TIME_SYSTEM    = UTC
MEAN_ELEMENT_THEORY = SGP/SGP4

EPOCH          = 2025-11-16T20:00:01.999008
MEAN_MOTION    = 15.49328924
ECCENTRICITY   = .0001467
INCLINATION    = 53.1591
RA_OF_ASC_NODE = 269.6080
ARG_OF_PERICENTER = 106.2557
MEAN_ANOMALY   = 276.9369

EPHEMERIS_TYPE = 0
CLASSIFICATION_TYPE = U
NORAD_CAT_ID   = 66102
ELEMENT_SET_NO = 999
REV_AT_EPOCH   = 565
BSTAR          = -.76674E-3
MEAN_MOTION_DOT = -.42889E-3
MEAN_MOTION_DDOT = 0

CCSDS_OMM_VERS = 2.0
CREATION_DATE  = 
ORIGINATOR     = 

OBJECT_NAME    = STARLINK-35622
OBJECT_ID      = 2025-236T
CENTER_NAME    = EARTH
REF_FRAME      = TEME
TIME_SYSTEM    = UTC
MEAN_ELEMENT_THEORY = SGP/SGP4

EPOCH          = 2025-11-16T20:00:01.999008
MEAN_MOTION    = 15.49344878
ECCENTRICITY   = .0001366
INCLINATION    = 53.1590
RA_OF_ASC_NODE = 269.5996
ARG_OF_PERICENTER = 103.1562
MEAN_ANOMALY   = 283.8698

EPHEMERIS_TYPE = 0
CLASSIFICATION_TYPE = U
NORAD_CAT_ID   = 66103
ELEMENT_SET_NO = 999
REV_AT_EPOCH   = 571
BSTAR          = -.13436E-2
MEAN_MOTION_DOT = -.74558E-3
MEAN_MOTION_DDOT = 0

CCSDS_OMM_VERS = 2.0
CREATION_DATE  = 
ORIGINATOR     = 

OBJECT_NAME    = STARLINK-35452
OBJECT_ID      = 2025-236U
CENTER_NAME    = EARTH
REF_FRAME      = TEME
TIME_SYSTEM    = UTC
MEAN_ELEMENT_THEORY = SGP/SGP4

EPOCH          = 2025-11-16T20:00:01.999008
MEAN_MOTION    = 15.49349067
ECCENTRICITY   = .000146
INCLINATION    = 53.1591
RA_OF_ASC_NODE = 269.6033
ARG_OF_PERICENTER = 97.9719
MEAN_ANOMALY   = 287.1405

EPHEMERIS_TYPE = 0
CLASSIFICATION_TYPE = U
NORAD_CAT_ID   = 66104
ELEMENT_SET_NO = 999
REV_AT_EPOCH   = 571
BSTAR          = -.15093E-2
MEAN_MOTION_DOT = -.83615E-3
MEAN_MOTION_DDOT = 0

CCSDS_OMM_VERS = 2.0
CREATION_DATE  = 
ORIGINATOR     = 

OBJECT_NAME    = STARLINK-35561
OBJECT_ID      = 2025-236V
CENTER_NAME    = EARTH
REF_FRAME      = TEME
TIME_SYSTEM    = UTC
MEAN_ELEMENT_THEORY = SGP/SGP4

EPOCH          = 2025-11-16T20:00:01.999008
MEAN_MOTION    = 15.49370883
ECCENTRICITY   = .0001372
INCLINATION    = 53.1591
RA_OF_ASC_NODE = 269.5959
ARG_OF_PERICENTER = 99.6799
MEAN_ANOMALY   = 289.2602

EPHEMERIS_TYPE = 0
CLASSIFICATION_TYPE = U
NORAD_CAT_ID   = 66105
ELEMENT_SET_NO = 999
REV_AT_EPOCH   = 565
BSTAR          = -.2193E-2
MEAN_MOTION_DOT = -.120816E-2
MEAN_MOTION_DDOT = 0

CCSDS_OMM_VERS = 2.0
CREATION_DATE  = 
ORIGINATOR     = 

OBJECT_NAME    = STARLINK-35584
OBJECT_ID      = 2025-236W
CENTER_NAME    = EARTH
REF_FRAME      = TEME
TIME_SYSTEM    = UTC
MEAN_ELEMENT_THEORY = SGP/SGP4

EPOCH          = 2025-11-16T20:00:01.999008
MEAN_MOTION    = 15.49335470
ECCENTRICITY   = .000139
INCLINATION    = 53.1590
RA_OF_ASC_NODE = 269.5907
ARG_OF_PERICENTER = 97.0681
MEAN_ANOMALY   = 293.7925

EPHEMERIS_TYPE = 0
CLASSIFICATION_TYPE = U
NORAD_CAT_ID   = 66106
ELEMENT_SET_NO = 999
REV_AT_EPOCH   = 571
BSTAR          = -.10139E-2
MEAN_MOTION_DOT = -.56484E-3
MEAN_MOTION_DDOT = 0

CCSDS_OMM_VERS = 2.0
CREATION_DATE  = 
ORIGINATOR     = 

OBJECT_NAME    = STARLINK-35593
OBJECT_ID      = 2025-236X
CENTER_NAME    = EARTH
REF_FRAME      = TEME
TIME_SYSTEM    = UTC
MEAN_ELEMENT_THEORY = SGP/SGP4

EPOCH          = 2025-11-16T20:00:01.999008
MEAN_MOTION    = 15.49345505
ECCENTRICITY   = .0001514
INCLINATION    = 53.1591
RA_OF_ASC_NODE = 269.5871
ARG_OF_PERICENTER = 97.5576
MEAN_ANOMALY   = 295.2212

EPHEMERIS_TYPE = 0
CLASSIFICATION_TYPE = U
NORAD_CAT_ID   = 66107
ELEMENT_SET_NO = 999
REV_AT_EPOCH   = 571
BSTAR          = -.13695E-2
MEAN_MOTION_DOT = -.75977E-3
MEAN_MOTION_DDOT = 0

CCSDS_OMM_VERS = 2.0
CREATION_DATE  = 
ORIGINATOR     = 

OBJECT_NAME    = STARLINK-35590
OBJECT_ID      = 2025-236Y
CENTER_NAME    = EARTH
REF_FRAME      = TEME
TIME_SYSTEM    = UTC
MEAN_ELEMENT_THEORY = SGP/SGP4

EPOCH          = 2025-11-16T20:00:01.999008
MEAN_MOTION    = 15.49346017
ECCENTRICITY   = .0001376
INCLINATION    = 53.1590
RA_OF_ASC_NODE = 269.5790
ARG_OF_PERICENTER = 99.7101
MEAN_ANOMALY   = 296.9032

EPHEMERIS_TYPE = 0
CLASSIFICATION_TYPE = U
NORAD_CAT_ID   = 66108
ELEMENT_SET_NO = 999
REV_AT_EPOCH   = 565
BSTAR          = -.14099E-2
MEAN_MOTION_DOT = -.78187E-3
MEAN_MOTION_DDOT = 0

CCSDS_OMM_VERS = 2.0
CREATION_DATE  = 
ORIGINATOR     = 

OBJECT_NAME    = STARLINK-35545
OBJECT_ID      = 2025-236Z
CENTER_NAME    = EARTH
REF_FRAME      = TEME
TIME_SYSTEM    = UTC
MEAN_ELEMENT_THEORY = SGP/SGP4

EPOCH          = 2025-11-16T20:00:01.999008
MEAN_MOTION    = 15.49344229
ECCENTRICITY   = .0001419
INCLINATION    = 53.1591
RA_OF_ASC_NODE = 269.5829
ARG_OF_PERICENTER = 92.7135
MEAN_ANOMALY   = 301.9799

EPHEMERIS_TYPE = 0
CLASSIFICATION_TYPE = U
NORAD_CAT_ID   = 66109
ELEMENT_SET_NO = 999
REV_AT_EPOCH   = 571
BSTAR          = -.12974E-2
MEAN_MOTION_DOT = -.72032E-3
MEAN_MOTION_DDOT = 0

CCSDS_OMM_VERS = 2.0
CREATION_DATE  = 
ORIGINATOR     = 

OBJECT_NAME    = STARLINK-35427
OBJECT_ID      = 2025-236AA
CENTER_NAME    = EARTH
REF_FRAME      = TEME
TIME_SYSTEM    = UTC
MEAN_ELEMENT_THEORY = SGP/SGP4

EPOCH          = 2025-11-16T20:00:01.999008
MEAN_MOTION    = 15.49321679
ECCENTRICITY   = .0001375
INCLINATION    = 53.1590
RA_OF_ASC_NODE = 269.5744
ARG_OF_PERICENTER = 103.0877
MEAN_ANOMALY   = 295.4379

EPHEMERIS_TYPE = 0
CLASSIFICATION_TYPE = U
NORAD_CAT_ID   = 66110
ELEMENT_SET_NO = 999
REV_AT_EPOCH   = 571
BSTAR          = -.55277E-3
MEAN_MOTION_DOT = -.31083E-3
MEAN_MOTION_DDOT = 0

CCSDS_OMM_VERS = 2.0
CREATION_DATE  = 
ORIGINATOR     = 

OBJECT_NAME    = STARLINK-35574
OBJECT_ID      = 2025-236AB
CENTER_NAME    = EARTH
REF_FRAME      = TEME
TIME_SYSTEM    = UTC
MEAN_ELEMENT_THEORY = SGP/SGP4

EPOCH          = 2025-11-16T20:00:01.999008
MEAN_MOTION    = 15.49342161
ECCENTRICITY   = .0001335
INCLINATION    = 53.1589
RA_OF_ASC_NODE = 269.5706
ARG_OF_PERICENTER = 97.4897
MEAN_ANOMALY   = 302.9556

EPHEMERIS_TYPE = 0
CLASSIFICATION_TYPE = U
NORAD_CAT_ID   = 66111
ELEMENT_SET_NO = 999
REV_AT_EPOCH   = 565
BSTAR          = -.12599E-2
MEAN_MOTION_DOT = -.69975E-3
MEAN_MOTION_DDOT = 0

CCSDS_OMM_VERS = 2.0
CREATION_DATE  = 
ORIGINATOR     = 

OBJECT_NAME    = STARLINK-35531
OBJECT_ID      = 2025-236AC
CENTER_NAME    = EARTH
REF_FRAME      = TEME
TIME_SYSTEM    = UTC
MEAN_ELEMENT_THEORY = SGP/SGP4

EPOCH          = 2025-11-16T20:00:01.999008
MEAN_MOTION    = 15.49342481
ECCENTRICITY   = .0001403
INCLINATION    = 53.1589
RA_OF_ASC_NODE = 269.5627
ARG_OF_PERICENTER = 95.3833
MEAN_ANOMALY   = 308.8951

EPHEMERIS_TYPE = 0
CLASSIFICATION_TYPE = U
NORAD_CAT_ID   = 66112
ELEMENT_SET_NO = 999
REV_AT_EPOCH   = 571
BSTAR          = -.12175E-2
MEAN_MOTION_DOT = -.6766E-3
MEAN_MOTION_DDOT = 0

